[{"OBJECT_NAME":"NUSAT-38 (MARIA AGNESI)","OBJECT_ID":"2023-054AA","EPOCH":"2026-03-09T23:32:56.689152","MEAN_MOTION":15.43783893,"ECCENTRICITY":0.00161894,"INCLINATION":97.3125,"RA_OF_ASC_NODE":338.4726,"ARG_OF_PERICENTER":64.5493,"MEAN_ANOMALY":295.7428,"EPHEMERIS_TYPE":0,"CLASSIFICATION_TYPE":"U","NORAD_CAT_ID":56202,"ELEMENT_SET_NO":999,"REV_AT_EPOCH":16317,"BSTAR":0.00076205358,"MEAN_MOTION_DOT":0.00034663,"MEAN_MOTION_DDOT":0},{"OBJECT_NAME":"FLOCK 4Q-9","OBJECT_ID":"2023-174BU","EPOCH":"2026-03-09T18:14:26.529792","MEAN_MOTION":15.44691322,"ECCENTRICITY":0.0008057,"INCLINATION":97.3895,"RA_OF_ASC_NODE":155.2137,"ARG_OF_PERICENTER":139.6631,"MEAN_ANOMALY":220.5217,"EPHEMERIS_TYPE":0,"CLASSIFICATION_TYPE":"U","NORAD_CAT_ID":58322,"ELEMENT_SET_NO":999,"REV_AT_EPOCH":13021,"BSTAR":0.00055840083,"MEAN_MOTION_DOT":0.00026044,"MEAN_MOTION_DDOT":0}]
